OBJECT_NAME,OBJECT_ID,EPOCH,MEAN_MOTION,ECCENTRICITY,INCLINATION,RA_OF_ASC_NODE,ARG_OF_PERICENTER,MEAN_ANOMALY,EPHEMERIS_TYPE,CLASSIFICATION_TYPE,NORAD_CAT_ID,ELEMENT_SET_NO,REV_AT_EPOCH,BSTAR,MEAN_MOTION_DOT,MEAN_MOTION_DDOT
SWARM A,2013-067B,2026-07-15T19:09:10.332000,15.51465718,.0003333,87.3295,45.6021,93.4142,266.7500,0,U,39452,999,71068,.10042E-3,.5968E-4,0
SWARM C,2013-067C,2026-07-15T19:09:02.295936,15.51464985,.0003324,87.3295,44.1830,93.6640,266.5002,0,U,39453,999,71064,.10021E-3,.5955E-4,0
BRITE-CA1 (TORONTO),2014-033L,2026-07-15T18:40:23.164032,14.72723306,.0078477,97.9773,325.1846,184.3909,175.6620,0,U,40020,999,64642,.87115E-4,.53E-5,0
OCO 2,2014-035A,2026-07-15T18:58:16.497408,14.57132501,.0001439,98.2020,137.6492,81.3195,278.8166,0,U,40059,999,64021,.46813E-4,.166E-5,0
BRITE-PL2 (HEWELIUSZ),2014-049B,2026-07-15T19:48:49.342176,14.94687962,.0014277,97.9120,309.0513,20.1864,339.9917,0,U,40119,999,64572,.49291E-4,.476E-5,0
MMS 1,2015-011A,2026-07-15T22:00:01.998720,0.28198461,.8310559,72.4940,348.4385,168.1202,349.0971,0,U,40482,999,136,0,-.1465E-4,0
MMS 2,2015-011B,2026-07-15T20:00:01.999008,0.28166519,.8315122,72.5006,348.4368,168.1078,340.6468,0,U,40483,999,136,0,-.1473E-4,0
MMS 3,2015-011C,2026-07-15T22:00:01.998720,0.28197494,.8311777,72.4977,348.4495,168.1307,349.0589,0,U,40484,999,133,0,-.1465E-4,0
MMS 4,2015-011D,2026-07-15T22:00:01.998720,0.28197378,.8311733,72.4933,348.4329,168.1406,349.0542,0,U,40485,999,139,0,-.1465E-4,0
ASTROSAT,2015-052A,2026-07-15T17:59:19.436928,14.82552840,.0007381,5.9976,309.7611,82.3352,277.7614,0,U,40930,999,58407,.5522E-4,.1124E-4,0
DAMPE,2015-078A,2026-07-15T20:44:32.138304,15.30854849,.0011492,97.4558,202.4737,343.2970,16.7891,0,U,41173,999,58893,.31099E-4,.85E-5,0
PISAT,2016-059B,2026-07-15T18:03:02.041344,14.69030320,.0030458,97.8191,195.9792,113.1166,247.3255,0,U,41784,999,52393,.84327E-4,.451E-5,0
HXMT (HUIYAN),2017-034A,2026-07-15T21:03:47.189664,15.18692409,.0032216,43.0155,23.2586,325.0313,34.8420,0,U,42758,999,50202,.11931E-3,.2305E-4,0
FLYING LAPTOP,2017-042G,2026-07-15T20:19:03.464832,15.01316441,.0019678,97.4804,351.3015,30.4455,329.7908,0,U,42831,999,49075,.17553E-3,.221E-4,0
ZHANGHENG 1-01 (CSES-1),2018-015C,2026-07-15T21:22:49.148832,15.20613374,.0016449,97.6891,3.1232,162.5426,197.6378,0,U,43194,999,46900,.17649E-3,.3809E-4,0
SALSAT,2020-068K,2026-07-15T11:08:34.478880,15.30174422,.00092137,97.8855,201.2595,191.9024,168.1999,0,U,46495,999,31968,.14152956E-3,.4051E-4,0
IXPE,2021-121A,2026-07-15T20:00:01.999008,15.10491109,.0006947,0.2296,100.4891,150.9035,116.4399,0,U,49954,999,551,.4059E-3,.7813E-4,0
SMILE,2026-109A,2026-07-13T23:01:31.580256,0.47500629,.83137076,70.0512,206.6048,286.9544,0.1879,0,U,69123,999,6,0,.936E-5,0
