SWARM A                 
1 39452U 13067B   26196.79803625  .00005968  00000+0  10042-3 0  9991
2 39452  87.3295  45.6021 0003333  93.4142 266.7500 15.51465718710683
SWARM C                 
1 39453U 13067C   26196.79794324  .00005955  00000+0  10021-3 0  9990
2 39453  87.3295  44.1830 0003324  93.6640 266.5002 15.51464985710647
BRITE-CA1 (TORONTO)     
1 40020U 14033L   26196.77804588  .00000530  00000+0  87115-4 0  9991
2 40020  97.9773 325.1846 0078477 184.3909 175.6620 14.72723306646420
OCO 2                   
1 40059U 14035A   26196.79046872  .00000166  00000+0  46813-4 0  9996
2 40059  98.2020 137.6492 0001439  81.3195 278.8166 14.57132501640217
BRITE-PL2 (HEWELIUSZ)   
1 40119U 14049B   26196.82557109  .00000476  00000+0  49291-4 0  9999
2 40119  97.9120 309.0513 0014277  20.1864 339.9917 14.94687962645729
MMS 1                   
1 40482U 15011A   26196.91668980 -.00001465  00000+0  00000+0 0  9992
2 40482  72.4940 348.4385 8310559 168.1202 349.0971  0.28198461  1364
MMS 2                   
1 40483U 15011B   26196.83335647 -.00001473  00000+0  00000+0 0  9994
2 40483  72.5006 348.4368 8315122 168.1078 340.6468  0.28166519  1369
MMS 3                   
1 40484U 15011C   26196.91668980 -.00001465  00000+0  00000+0 0  9994
2 40484  72.4977 348.4495 8311777 168.1307 349.0589  0.28197494  1334
MMS 4                   
1 40485U 15011D   26196.91668980 -.00001465  00000+0  00000+0 0  9995
2 40485  72.4933 348.4329 8311733 168.1406 349.0542  0.28197378  1391
ASTROSAT                
1 40930U 15052A   26196.74953052  .00001124  00000+0  55220-4 0  9993
2 40930   5.9976 309.7611 0007381  82.3352 277.7614 14.82552840584070
DAMPE                   
1 41173U 15078A   26196.86426086  .00000850  00000+0  31099-4 0  9999
2 41173  97.4558 202.4737 0011492 343.2970  16.7891 15.30854849588938
PISAT                   
1 41784U 16059B   26196.75210696  .00000451  00000+0  84327-4 0  9992
2 41784  97.8191 195.9792 0030458 113.1166 247.3255 14.69030320523930
HXMT (HUIYAN)           
1 42758U 17034A   26196.87762951  .00002305  00000+0  11931-3 0  9997
2 42758  43.0155  23.2586 0032216 325.0313  34.8420 15.18692409502028
FLYING LAPTOP           
1 42831U 17042G   26196.84656788  .00002210  00000+0  17553-3 0  9996
2 42831  97.4804 351.3015 0019678  30.4455 329.7908 15.01316441490751
ZHANGHENG 1-01 (CSES-1) 
1 43194U 18015C   26196.89084663  .00003809  00000+0  17649-3 0  9993
2 43194  97.6891   3.1232 0016449 162.5426 197.6378 15.20613374469006
SALSAT                  
1 46495U 20068K   26196.46428795  .00004051  00000+0  14153-3 0  9999
2 46495  97.8855 201.2595 0009213 191.9024 168.1999 15.30174422319686
IXPE                    
1 49954U 21121A   26196.83335647  .00007813  00000+0  40590-3 0  9990
2 49954   0.2296 100.4891 0006947 150.9035 116.4399 15.10491109  5519
SMILE                   
1 69123U 26109A   26194.95939329  .00000936  00000+0  00000+0 0  9996
2 69123  70.0512 206.6048 8313707 286.9544   0.1879  0.47500629    65
